DELTA 2 R/B(1)          
1 20453U 90008B   26041.26353382  .00066828  00000+0  87954-3 0  9991
2 20453  35.6055 354.3158 0093532   2.5651 357.5548 15.52162436921868
COSMOS 2058             
1 20465U 90010A   26041.56627331  .00004337  00000+0  25721-3 0  9999
2 20465  82.4645  74.1481 0011879  72.7958 287.4571 15.11068318938140
SL-14 R/B               
1 20466U 90010B   26041.16849073  .00000494  00000+0  56942-4 0  9995
2 20466  82.5025 293.2415 0020709  34.3435 325.9114 14.83544862924407
SL-14 R/B               
1 20511U 90018B   26041.56482548  .00000440  00000+0  52217-4 0  9990
2 20511  82.5181 248.4487 0016376 176.3404 183.7934 14.82115900918566
HST                     
1 20580U 90037B   26040.75045178  .00007715  00000+0  25800-3 0  9990
2 20580  28.4664 230.5298 0001744 153.1588 206.9098 15.29031698769036
SL-16 R/B               
1 20625U 90046B   26041.33947809  .00000267  00000+0  16228-3 0  9996
2 20625  71.0006 355.3511 0014809 337.8477  22.2004 14.15007014844521
COSMOS 2084             
1 20663U 90055A   26041.35748653  .00002667  00000+0  19787-3 0  9995
2 20663  62.7895  68.7853 0021462 184.2244 175.8679 15.05471746932202
SL-6 R/B(2)             
1 20666U 90055D   26041.30316347  .00002882  00000+0  22425-3 0  9996
2 20666  62.7847 346.9720 0020633 339.2958  20.7303 15.03450954934074
SL-8 R/B                
1 20775U 90078B   26041.15023914  .00014837  00000+0  43682-3 0  9991
2 20775  82.9019 276.0595 0366872 106.2701 257.9199 14.88150451805209
SL-8 R/B                
1 21088U 91006B   26041.53248068  .00000036  00000+0  20518-4 0  9992
2 21088  82.9436 190.2358 0023693 110.5742 318.6495 13.77492142760339
OKEAN-3                 
1 21397U 91039A   26041.34734773  .00003690  00000+0  26035-3 0  9991
2 21397  82.5175   3.3235 0016509  66.7607 293.5356 15.04584430860923
COSMOS 2151             
1 21422U 91042A   26041.53390103  .00002164  00000+0  17166-3 0  9990
2 21422  82.4962 109.8724 0013407 145.9464 214.2623 15.00000834859129
